[{"OBJECT_NAME":"OBJECT B","OBJECT_ID":"2024-166B","EPOCH":"2026-03-08T16:09:42.851232","MEAN_MOTION":15.75502359,"ECCENTRICITY":0.0002182,"INCLINATION":96.6921,"RA_OF_ASC_NODE":322.5475,"ARG_OF_PERICENTER":351.2198,"MEAN_ANOMALY":8.9031,"EPHEMERIS_TYPE":0,"CLASSIFICATION_TYPE":"U","NORAD_CAT_ID":61180,"ELEMENT_SET_NO":999,"REV_AT_EPOCH":8491,"BSTAR":0.00025198,"MEAN_MOTION_DOT":0.00038147,"MEAN_MOTION_DDOT":0},{"OBJECT_NAME":"STARLINK-11455 [DTC]","OBJECT_ID":"2024-254B","EPOCH":"2026-03-09T11:36:36.501984","MEAN_MOTION":15.70898274,"ECCENTRICITY":0.00037881,"INCLINATION":43.0003,"RA_OF_ASC_NODE":224.6913,"ARG_OF_PERICENTER":291.4936,"MEAN_ANOMALY":68.5528,"EPHEMERIS_TYPE":0,"CLASSIFICATION_TYPE":"U","NORAD_CAT_ID":62463,"ELEMENT_SET_NO":999,"REV_AT_EPOCH":6936,"BSTAR":0.0022500333,"MEAN_MOTION_DOT":0.00299687,"MEAN_MOTION_DDOT":0}]
