2024-166B               
1 61180U 24166B   26067.67341263  .00038147  00000+0  25198-3 0  9998
2 61180  96.6921 322.5475 0002182 351.2198   8.9031 15.75502359 84916
STARLINK-11455 [DTC]    
1 62463U 24254B   26068.48375581  .00299687  00000+0  22500-2 0  9992
2 62463  43.0003 224.6913 0003788 291.4936  68.5528 15.70898274 69369
